[{"OBJECT_NAME":"STARLINK-34935","OBJECT_ID":"2025-184E","EPOCH":"2026-03-09T22:51:52.994016","MEAN_MOTION":15.05649777,"ECCENTRICITY":0.00011009,"INCLINATION":97.6036,"RA_OF_ASC_NODE":122.9671,"ARG_OF_PERICENTER":97.5253,"MEAN_ANOMALY":262.6099,"EPHEMERIS_TYPE":0,"CLASSIFICATION_TYPE":"U","NORAD_CAT_ID":65277,"ELEMENT_SET_NO":999,"REV_AT_EPOCH":3134,"BSTAR":0.00023691638,"MEAN_MOTION_DOT":3.359e-5,"MEAN_MOTION_DDOT":0},{"OBJECT_NAME":"RAPIDEYE 4","OBJECT_ID":"2008-040E","EPOCH":"2026-03-09T22:51:05.848992","MEAN_MOTION":15.03765217,"ECCENTRICITY":0.00096509,"INCLINATION":97.4015,"RA_OF_ASC_NODE":97.7474,"ARG_OF_PERICENTER":35.5595,"MEAN_ANOMALY":324.6273,"EPHEMERIS_TYPE":0,"CLASSIFICATION_TYPE":"U","NORAD_CAT_ID":33316,"ELEMENT_SET_NO":999,"REV_AT_EPOCH":95086,"BSTAR":0.00022327721,"MEAN_MOTION_DOT":3.01e-5,"MEAN_MOTION_DDOT":0}]
